{
  "norad_id": 43881,
  "name": "D-STAR ONE (SPARROW)",
  "history": [
    {
      "epoch": "2026-03-28T18:31:54.880608Z",
      "apogee_km": 394.41502154006685,
      "perigee_km": 393.39203709770845,
      "latitude_deg": 4.376270735415527e-05,
      "longitude_deg": -82.0086894439909,
      "height_km": 397.49040757657326,
      "semi_major_axis_km": 6772.040529318888,
      "eccentricity": 7.553e-05,
      "inclination_deg": 97.611,
      "raan_deg": 22.1578,
      "arg_perigee_deg": 152.065,
      "mean_anomaly_deg": 208.0646,
      "mean_motion_rev_day": 15.5784211
    },
    {
      "epoch": "2026-03-29T02:14:23.151264Z",
      "apogee_km": 394.2646974023519,
      "perigee_km": 393.18390833841477,
      "latitude_deg": -1.1154331642967393e-06,
      "longitude_deg": 162.4001718049896,
      "height_km": 397.3331885826317,
      "semi_major_axis_km": 6771.861302870383,
      "eccentricity": 7.98e-05,
      "inclination_deg": 97.6113,
      "raan_deg": 22.501,
      "arg_perigee_deg": 151.2682,
      "mean_anomaly_deg": 208.8617,
      "mean_motion_rev_day": 15.57903956
    },
    {
      "epoch": "2026-03-30T01:21:40.454208Z",
      "apogee_km": 393.80054684927654,
      "perigee_km": 392.39619263359236,
      "latitude_deg": 1.249668245758595e-05,
      "longitude_deg": 175.65770976590719,
      "height_km": 396.90174904003203,
      "semi_major_axis_km": 6771.235369741435,
      "eccentricity": 0.0001037,
      "inclination_deg": 97.6117,
      "raan_deg": 23.5302,
      "arg_perigee_deg": 162.0334,
      "mean_anomaly_deg": 198.0958,
      "mean_motion_rev_day": 15.5811998
    }
  ]
}